NORAD_CAT_ID,OBJECT_NAME,OBJECT_TYPE,EPOCH,MEAN_MOTION,ECCENTRICITY,INCLINATION,RA_OF_ASC_NODE,ARG_OF_PERICENTER,MEAN_ANOMALY,BSTAR,MEAN_MOTION_DOT,MEAN_MOTION_DDOT,TLE_LINE0,TLE_LINE1,TLE_LINE2,SEMIMAJOR_AXIS,PERIOD,APOGEE,PERIGEE,DECAYED
53726.0,STARLINK-4697,PAYLOAD,2023-12-09 04:03:18,15.08834133,0.0001926,53.2185,341.9452,98.6659,261.4551,3.6174e-05,2.88e-06,0.0,0 STARLINK-4697,1 53726U 22107AC  23343.16896940  .00000288  00000-0  36174-4 0  9996,2 53726  53.2185 341.9452 0001926  98.6659 261.4551 15.08834133 69935,6917.898,95.438,541.096,538.431,0.0
53726.0,STARLINK-4697,PAYLOAD,2023-12-09 05:38:42,15.08835791,0.0001933,53.2184,341.6478,97.6413,262.4799,4.998e-05,5.07e-06,0.0,0 STARLINK-4697,1 53726U 22107AC  23343.23520835  .00000507  00000-0  49980-4 0  9994,2 53726  53.2184 341.6478 0001933  97.6413 262.4799 15.08835791 70404,6917.893,95.438,541.095,538.421,0.0
53726.0,STARLINK-4697,PAYLOAD,2023-12-10 08:40:15,15.08838399,0.0002027,53.2188,336.5919,99.0841,261.038,4.7442e-05,4.67e-06,0.0,0 STARLINK-4697,1 53726U 22107AC  23344.36128912  .00000467  00000-0  47442-4 0  9995,2 53726  53.2188 336.5919 0002027  99.0841 261.0380 15.08838399 70113,6917.885,95.438,541.153,538.348,0.0
53726.0,STARLINK-4697,PAYLOAD,2023-12-11 06:55:39,15.08840181,0.0001873,53.218,332.4345,94.5827,265.5379,7.7836e-05,9.51e-06,0.0,0 STARLINK-4697,1 53726U 22107AC  23345.28864885  .00000951  00000-0  77836-4 0  9991,2 53726  53.2180 332.4345 0001873  94.5827 265.5379 15.08840181 70710,6917.88,95.438,541.041,538.449,0.0
53726.0,STARLINK-4697,PAYLOAD,2023-12-12 03:35:40,15.08836189,0.0002114,53.2187,328.5659,78.9114,281.2116,2.5522e-05,1.18e-06,0.0,0 STARLINK-4697,1 53726U 22107AC  23346.14977526  .00000118  00000-0  25522-4 0  9994,2 53726  53.2187 328.5659 0002114  78.9114 281.2116 15.08836189 70385,6917.892,95.438,541.219,538.295,0.0
53726.0,STARLINK-4697,PAYLOAD,2023-12-12 06:46:26,15.08838357,0.0002183,53.2191,327.9714,74.7605,285.3629,4.4018e-05,4.12e-06,0.0,0 STARLINK-4697,1 53726U 22107AC  23346.28225453  .00000412  00000-0  44018-4 0  9992,2 53726  53.2191 327.9714 0002183  74.7605 285.3629 15.08838357 70866,6917.885,95.438,541.261,538.24,0.0
53726.0,STARLINK-4697,PAYLOAD,2023-12-13 03:26:27,15.08844297,0.0002163,53.2191,324.1046,76.3079,283.8154,8.715e-05,1.099e-05,0.0,0 STARLINK-4697,1 53726U 22107AC  23347.14336908  .00001099  00000-0  87150-4 0  9992,2 53726  53.2191 324.1046 0002163  76.3079 283.8154 15.08844297 70534,6917.867,95.437,541.229,538.236,0.0
53726.0,STARLINK-4697,PAYLOAD,2023-12-14 04:52:37,15.08844507,0.0001826,53.2178,319.3481,90.1972,269.9229,4.8771e-05,4.88e-06,0.0,0 STARLINK-4697,1 53726U 22107AC  23348.20320808  .00000488  00000-0  48771-4 0  9999,2 53726  53.2178 319.3481 0001826  90.1972 269.9229 15.08844507 70698,6917.867,95.437,540.995,538.468,0.0
53726.0,STARLINK-4697,PAYLOAD,2023-12-15 03:08:01,15.08840169,0.0002039,53.2182,315.1839,101.9962,258.1259,3.4264e-05,2.57e-06,0.0,0 STARLINK-4697,1 53726U 22107AC  23349.13056947  .00000257  00000-0  34264-4 0  9998,2 53726  53.2182 315.1839 0002039 101.9962 258.1259 15.08840169 70830,6917.88,95.438,541.155,538.334,0.0
53726.0,STARLINK-4697,PAYLOAD,2023-12-16 02:58:48,15.08833617,0.0001855,53.2176,310.7195,100.193,259.9271,-2.358e-06,-3.26e-06,0.0,0 STARLINK-4697,1 53726U 22107AC  23350.12417718 -.00000326  00000-0 -23580-5 0  9995,2 53726  53.2176 310.7195 0001855 100.1930 259.9271 15.08833617 70989,6917.9,95.438,541.048,538.482,0.0
53726.0,STARLINK-4697,PAYLOAD,2023-12-16 04:34:12,15.08834789,0.0001832,53.2178,310.4257,96.9394,263.1807,9.1943e-06,-1.42e-06,0.0,0 STARLINK-4697,1 53726U 22107AC  23350.19041721 -.00000142  00000-0  91943-5 0  9992,2 53726  53.2178 310.4257 0001832  96.9394 263.1807 15.08834789 71454,6917.896,95.438,541.029,538.494,0.0
53726.0,STARLINK-4697,PAYLOAD,2023-12-17 04:24:59,15.08824558,0.0001916,53.2177,305.9645,98.4912,261.6297,0.00030055,4.496e-05,0.0,0 STARLINK-4697,1 53726U 22107AC  23351.18401826  .00004496  00000-0  30055-3 0  9998,2 53726  53.2177 305.9645 0001916  98.4912 261.6297 15.08824558 71144,6917.928,95.439,541.118,538.467,0.0
53726.0,STARLINK-4697,PAYLOAD,2023-12-18 02:40:22,15.08849135,0.0001749,53.2178,301.8012,93.3668,266.7524,0.00018723,2.694e-05,0.0,0 STARLINK-4697,1 53726U 22107AC  23352.11136807  .00002694  00000-0  18723-3 0  9992,2 53726  53.2178 301.8012 0001749  93.3668 266.7524 15.08849135 71286,6917.852,95.437,540.927,538.508,0.0
53726.0,STARLINK-4697,PAYLOAD,2023-12-18 04:15:45,15.08854134,0.0001791,53.2183,301.5032,84.7442,275.3755,0.00022998,3.375e-05,0.0,0 STARLINK-4697,1 53726U 22107AC  23352.17760459  .00003375  00000-0  22998-3 0  9990,2 53726  53.2183 301.5032 0001791  84.7442 275.3755 15.08854134 71751,6917.837,95.437,540.941,538.463,0.0
53726.0,STARLINK-4697,PAYLOAD,2023-12-19 04:06:33,15.0883549,0.0001553,53.2174,297.043,92.8277,267.2893,-5.9836e-05,-1.24e-05,0.0,0 STARLINK-4697,1 53726U 22107AC  23353.17121912 -.00001240  00000-0 -59836-4 0  9999,2 53726  53.2174 297.0430 0001553  92.8277 267.2893 15.08835490 71447,6917.894,95.438,540.834,538.685,0.0
53726.0,STARLINK-4697,PAYLOAD,2023-12-20 02:21:57,15.08839673,0.0001664,53.2174,292.8824,68.6725,291.4444,0.00015264,2.142e-05,0.0,0 STARLINK-4697,1 53726U 22107AC  23354.09858078  .00002142  00000-0  15264-3 0  9997,2 53726  53.2174 292.8824 0001664  68.6725 291.4444 15.08839673 72044,6917.881,95.438,540.898,538.595,0.0
53726.0,STARLINK-4697,PAYLOAD,2023-12-21 02:12:44,15.08851211,0.0001799,53.2177,288.4207,67.9662,292.1521,0.00035061,5.298e-05,0.0,0 STARLINK-4697,1 53726U 22107AC  23355.09217714  .00005298  00000-0  35061-3 0  9996,2 53726  53.2177 288.4207 0001799  67.9662 292.1521 15.08851211 72196,6917.846,95.437,540.956,538.467,0.0
53726.0,STARLINK-4697,PAYLOAD,2023-12-21 22:52:44,15.08842915,0.0001472,53.2174,284.5576,100.0163,260.0995,5.2436e-05,5.47e-06,0.0,0 STARLINK-4697,1 53726U 22107AC  23355.95329835  .00000547  00000-0  52436-4 0  9997,2 53726  53.2174 284.5576 0001472 100.0163 260.0995 15.08842915 72327,6917.871,95.437,540.755,538.718,0.0
53726.0,STARLINK-4697,PAYLOAD,2023-12-22 02:03:31,15.08843281,0.0001486,53.2169,283.9626,100.6232,259.4927,5.603e-05,6.04e-06,0.0,0 STARLINK-4697,1 53726U 22107AC  23356.08577786  .00000604  00000-0  56030-4 0  9990,2 53726  53.2169 283.9626 0001486 100.6232 259.4927 15.08843281 71882,6917.87,95.437,540.763,538.707,0.0
53726.0,STARLINK-4697,PAYLOAD,2023-12-22 22:43:32,15.08838063,0.0001622,53.217,280.0963,117.7876,242.3281,-3.6086e-05,-8.62e-06,0.0,0 STARLINK-4697,1 53726U 22107AC  23356.94690027 -.00000862  00000-0 -36086-4 0  9996,2 53726  53.2170 280.0963 0001622 117.7876 242.3281 15.08838063 72473,6917.886,95.438,540.873,538.629,0.0
53726.0,STARLINK-4697,PAYLOAD,2023-12-23 03:29:40,15.08855714,0.0001894,53.2164,279.1991,118.7913,241.3269,0.00017037,2.425e-05,0.0,0 STARLINK-4697,1 53726U 22107AC  23357.14561079  .00002425  00000-0  17037-3 0  9992,2 53726  53.2164 279.1991 0001894 118.7913 241.3269 15.08855714 72040,6917.832,95.437,541.008,538.387,0.0
53726.0,STARLINK-4697,PAYLOAD,2023-12-23 19:23:34,15.08811168,0.0002775,53.2165,276.2262,137.7004,222.4203,-0.00077281,-0.00012558,0.0,0 STARLINK-4697,1 53726U 22107AC  23357.80803592 -.00012558  00000-0 -77281-3 0  9991,2 53726  53.2165 276.2262 0002775 137.7004 222.4203 15.08811168 72145,6917.969,95.439,541.753,537.914,0.0
53726.0,STARLINK-4697,PAYLOAD,2023-12-23 22:34:19,15.08834737,0.0001286,53.2167,275.6358,68.1044,292.0085,0.00010579,1.396e-05,0.0,0 STARLINK-4697,1 53726U 22107AC  23357.94050718  .00001396  00000-0  10579-3 0  9993,2 53726  53.2167 275.6358 0001286  68.1044 292.0085 15.08834737 72624,6917.896,95.438,540.651,538.872,0.0
53726.0,STARLINK-4697,PAYLOAD,2023-12-24 01:45:05,15.08841774,0.0001453,53.2168,275.039,93.0703,267.0456,0.000196,2.833e-05,0.0,0 STARLINK-4697,1 53726U 22107AC  23358.07298338  .00002833  00000-0  19600-3 0  9991,2 53726  53.2168 275.0390 0001453  93.0703 267.0456 15.08841774 72184,6917.875,95.437,540.745,538.735,0.0
53726.0,STARLINK-4697,PAYLOAD,2023-12-24 22:25:06,15.08852921,0.0001627,53.2155,271.1743,120.7335,239.3818,0.0001844,2.649e-05,0.0,0 STARLINK-4697,1 53726U 22107AC  23358.93409781  .00002649  00000-0  18440-3 0  9998,2 53726  53.2155 271.1743 0001627 120.7335 239.3818 15.08852921 72776,6917.841,95.437,540.831,538.58,0.0
53726.0,STARLINK-4697,PAYLOAD,2023-12-25 00:00:29,15.0885265,0.000153,53.2161,270.8781,116.6591,243.4557,0.0001579,2.227e-05,0.0,0 STARLINK-4697,1 53726U 22107AC  23359.00033922  .00002227  00000-0  15790-3 0  9994,2 53726  53.2161 270.8781 0001530 116.6591 243.4557 15.08852650 72788,6917.842,95.437,540.765,538.648,0.0
53726.0,STARLINK-4697,PAYLOAD,2023-12-25 22:15:54,15.08832361,0.0001551,53.2151,266.718,87.0824,273.0346,0.00031345,4.703e-05,0.0,0 STARLINK-4697,1 53726U 22107AC  23359.92771008  .00004703  00000-0  31345-3 0  9994,2 53726  53.2151 266.7180 0001551  87.0824 273.0346 15.08832361 72925,6917.904,95.438,540.842,538.696,0.0
53726.0,STARLINK-4697,PAYLOAD,2023-12-26 03:02:03,15.0883815,0.0001639,53.2151,265.8246,97.1669,262.951,0.00031435,4.718e-05,0.0,0 STARLINK-4697,1 53726U 22107AC  23360.12642708  .00004718  00000-0  31435-3 0  9998,2 53726  53.2151 265.8246 0001639  97.1669 262.9510 15.08838150 72498,6917.886,95.438,540.885,538.617,0.0
53726.0,STARLINK-4697,PAYLOAD,2023-12-26 22:06:40,15.08839645,0.0001391,53.2152,262.2552,102.9182,257.1966,-4.1544e-05,-9.49e-06,0.0,0 STARLINK-4697,1 53726U 22107AC  23360.92130549 -.00000949  00000-0 -41544-4 0  9998,2 53726  53.2152 262.2552 0001391 102.9182 257.1966 15.08839645 73076,6917.881,95.438,540.709,538.784,0.0
53726.0,STARLINK-4697,PAYLOAD,2023-12-27 01:17:26,15.08849543,0.0001382,53.2163,261.661,91.5426,268.5724,7.2756e-05,8.7e-06,0.0,0 STARLINK-4697,1 53726U 22107AC  23361.05378161  .00000870  00000-0  72756-4 0  9997,2 53726  53.2163 261.6610 0001382  91.5426 268.5724 15.08849543 73098,6917.851,95.437,540.672,538.76,0.0
